CCSDS_OMM_VERS,COMMENT,CREATION_DATE,ORIGINATOR,OBJECT_NAME,OBJECT_ID,CENTER_NAME,REF_FRAME,TIME_SYSTEM,MEAN_ELEMENT_THEORY,EPOCH,MEAN_MOTION,ECCENTRICITY,INCLINATION,RA_OF_ASC_NODE,ARG_OF_PERICENTER,MEAN_ANOMALY,EPHEMERIS_TYPE,CLASSIFICATION_TYPE,NORAD_CAT_ID,ELEMENT_SET_NO,REV_AT_EPOCH,BSTAR,MEAN_MOTION_DOT,MEAN_MOTION_DDOT,SEMIMAJOR_AXIS,PERIOD,APOAPSIS,PERIAPSIS,OBJECT_TYPE,RCS_SIZE,COUNTRY_CODE,LAUNCH_DATE,SITE,DECAY_DATE,FILE,GP_ID,TLE_LINE0,TLE_LINE1,TLE_LINE2
"2.0","GENERATED VIA SPACE-TRACK.ORG API","2023-01-03T02:40:54","18 SPCS","CZ-3A DEB","2007-003L","EARTH","TEME","UTC","SGP4","2023-01-02T03:01:10.383168","1.96473784","0.74826170","26.2076","83.7433","196.4206","109.8747","0","U","35552","999","10538","0.00984540000000","0.00002440","0.0000000000000","26927.669","732.922","40698.478","400.591","DEBRIS","MEDIUM","PRC","2007-02-02","XSC","","3729873","222054532","0 CZ-3A DEB","1 35552U 07003L   23002.12581462  .00002440  00000-0  98454-2 0  9998","2 35552  26.2076  83.7433 7482617 196.4206 109.8747  1.96473784105388"
"2.0","GENERATED VIA SPACE-TRACK.ORG API","2023-01-04T07:16:20","18 SPCS","CZ-3A DEB","2007-003Q","EARTH","TEME","UTC","SGP4","2023-01-01T22:15:18.031392","2.16267443","0.72734670","25.9383","336.4789","32.1408","356.3651","0","U","35556","999","11194","0.01659900000000","0.00002155","0.0000000000000","25258.511","665.842","37252.071","508.681","DEBRIS","MEDIUM","PRC","2007-02-02","XSC","","3731104","222121007","0 CZ-3A DEB","1 35556U 07003Q   23001.92729203  .00002155  00000-0  16599-1 0  9998","2 35556  25.9383 336.4789 7273467  32.1408 356.3651  2.16267443111940"
"2.0","GENERATED VIA SPACE-TRACK.ORG API","2023-01-02T02:38:49","18 SPCS","CZ-3A DEB","2007-003Q","EARTH","TEME","UTC","SGP4","2023-01-01T22:15:18.031392","2.16267443","0.72734670","25.9383","336.4789","32.1408","356.3651","0","U","35556","999","6835","0.01659900000000","0.00002155","0.0000000000000","25258.511","665.842","37252.071","508.681","DEBRIS","MEDIUM","PRC","2007-02-02","XSC","","3728952","221979688","0 CZ-3A DEB","1 35556U 07003Q   23001.92729203  .00002155  00000-0  16599-1 0  9998","2 35556  25.9383 336.4789 7273467  32.1408 356.3651  2.16267443 68356"
"2.0","GENERATED VIA SPACE-TRACK.ORG API","2023-01-01T17:55:23","18 SPCS","CZ-3A DEB","2007-003Q","EARTH","TEME","UTC","SGP4","2023-01-01T11:09:30.728736","2.16264774","0.72733200","25.9396","336.6300","31.8871","356.3964","0","U","35556","999","6834","0.01658700000000","0.00002146","0.0000000000000","25258.719","665.850","37252.058","509.109","DEBRIS","MEDIUM","PRC","2007-02-02","XSC","","3728759","221922828","0 CZ-3A DEB","1 35556U 07003Q   23001.46493899  .00002146  00000-0  16587-1 0  9993","2 35556  25.9396 336.6300 7273320  31.8871 356.3964  2.16264774 68349"
"2.0","GENERATED VIA SPACE-TRACK.ORG API","2023-01-02T02:38:49","18 SPCS","CZ-3A DEB","2007-003R","EARTH","TEME","UTC","SGP4","2023-01-01T07:07:45.225408","3.05103187","0.66380560","23.1074","82.4916","146.3857","282.9696","0","U","35557","999","10000","0.01722600000000","0.00014780","0.0000000000000","20080.322","471.971","27031.618","372.757","DEBRIS","MEDIUM","PRC","2007-02-02","XSC","","3728952","221980939","0 CZ-3A DEB","1 35557U 07003R   23001.29705122  .00014780  00000-0  17226-1 0  9998","2 35557  23.1074  82.4916 6638056 146.3857 282.9696  3.05103187100003"
"2.0","GENERATED VIA SPACE-TRACK.ORG API","2023-01-04T03:14:03","18 SPCS","CZ-3A DEB","2007-003R","EARTH","TEME","UTC","SGP4","2023-01-02T22:23:07.647360","3.05143197","0.66365560","23.1305","81.6123","147.9109","279.6654","0","U","35557","999","10005","0.01388300000000","0.00011623","0.0000000000000","20078.567","471.910","27025.685","375.179","DEBRIS","MEDIUM","PRC","2007-02-02","XSC","","3730926","222103588","0 CZ-3A DEB","1 35557U 07003R   23002.93272740  .00011623  00000-0  13883-1 0  9993","2 35557  23.1305  81.6123 6636556 147.9109 279.6654  3.05143197100058"
"2.0","GENERATED VIA SPACE-TRACK.ORG API","2023-01-03T02:40:54","18 SPCS","CZ-3A DEB","2007-003R","EARTH","TEME","UTC","SGP4","2023-01-02T14:32:05.489376","3.05137346","0.66374270","23.1165","81.7895","147.6094","280.3393","0","U","35557","999","10004","0.01376700000000","0.00011739","0.0000000000000","20078.824","471.919","27027.861","373.516","DEBRIS","MEDIUM","PRC","2007-02-02","XSC","","3729873","222054782","0 CZ-3A DEB","1 35557U 07003R   23002.60561909  .00011739  00000-0  13767-1 0  9994","2 35557  23.1165  81.7895 6637427 147.6094 280.3393  3.05137346100044"
"2.0","GENERATED VIA SPACE-TRACK.ORG API","2023-01-01T17:55:23","18 SPCS","CZ-3A DEB","2007-003R","EARTH","TEME","UTC","SGP4","2023-01-01T07:07:46.130016","3.05100462","0.66379270","23.1081","82.4931","146.3783","282.9818","0","U","35557","999","10000","0.01468300000000","0.00012534","0.0000000000000","20080.442","471.976","27031.558","373.056","DEBRIS","MEDIUM","PRC","2007-02-02","XSC","","3728759","221923078","0 CZ-3A DEB","1 35557U 07003R   23001.29706169  .00012534  00000-0  14683-1 0  9999","2 35557  23.1081  82.4931 6637927 146.3783 282.9818  3.05100462100001"
"2.0","GENERATED VIA SPACE-TRACK.ORG API","2023-01-01T16:06:13","18 SPCS","CZ-3A DEB","2007-003R","EARTH","TEME","UTC","SGP4","2023-01-01T07:07:46.130016","3.05100462","0.66379270","23.1081","82.4931","146.3783","282.9818","0","U","35557","999","13846","0.01468300000000","0.00012534","0.0000000000000","20080.442","471.976","27031.558","373.056","DEBRIS","MEDIUM","PRC","2007-02-02","XSC","","3728641","221906834","0 CZ-3A DEB","1 35557U 07003R   23001.29706169  .00012534  00000-0  14683-1 0  9999","2 35557  23.1081  82.4931 6637927 146.3783 282.9818  3.05100462138462"
"2.0","GENERATED VIA SPACE-TRACK.ORG API","2023-01-02T17:42:09","18 SPCS","CZ-3A DEB","2007-003R","EARTH","TEME","UTC","SGP4","2023-01-01T14:58:51.930624","3.05110947","0.66376720","23.1134","82.3150","146.6921","282.3164","0","U","35557","999","10001","0.01587700000000","0.00013520","0.0000000000000","20079.982","471.959","27030.280","373.414","DEBRIS","MEDIUM","PRC","2007-02-02","XSC","","3729583","222020978","0 CZ-3A DEB","1 35557U 07003R   23001.62421216  .00013520  00000-0  15877-1 0  9995","2 35557  23.1134  82.3150 6637672 146.6921 282.3164  3.05110947100014"
"2.0","GENERATED VIA SPACE-TRACK.ORG API","2023-01-02T08:46:13","18 SPCS","CZ-3A DEB","2007-003R","EARTH","TEME","UTC","SGP4","2023-01-01T14:58:51.930624","3.05110947","0.66376720","23.1134","82.3150","146.6921","282.3164","0","U","35557","999","13847","0.01587700000000","0.00013520","0.0000000000000","20079.982","471.959","27030.280","373.414","DEBRIS","MEDIUM","PRC","2007-02-02","XSC","","3729257","222000501","0 CZ-3A DEB","1 35557U 07003R   23001.62421216  .00013520  00000-0  15877-1 0  9995","2 35557  23.1134  82.3150 6637672 146.6921 282.3164  3.05110947138475"
"2.0","GENERATED VIA SPACE-TRACK.ORG API","2023-01-03T08:06:13","18 SPCS","CZ-3A DEB","2007-003R","EARTH","TEME","UTC","SGP4","2023-01-02T22:23:07.647360","3.05143197","0.66365560","23.1305","81.6123","147.9109","279.6654","0","U","35557","999","13851","0.01388300000000","0.00011623","0.0000000000000","20078.567","471.910","27025.685","375.179","DEBRIS","MEDIUM","PRC","2007-02-02","XSC","","3730250","222075358","0 CZ-3A DEB","1 35557U 07003R   23002.93272740  .00011623  00000-0  13883-1 0  9993","2 35557  23.1305  81.6123 6636556 147.9109 279.6654  3.05143197138510"
"2.0","GENERATED VIA SPACE-TRACK.ORG API","2023-01-03T00:46:15","18 SPCS","CZ-3A DEB","2007-003S","EARTH","TEME","UTC","SGP4","2023-01-02T10:02:06.300672","1.90553081","0.74418050","22.9580","145.3997","198.0830","104.6658","0","U","35558","999","10218","0.00624070000000","0.00000238","0.0000000000000","27482.603","755.695","41556.485","652.451","DEBRIS","MEDIUM","PRC","2007-02-02","XSC","","3729733","222038708","0 CZ-3A DEB","1 35558U 07003S   23002.41812848  .00000238  00000-0  62407-2 0  9993","2 35558  22.9580 145.3997 7441805 198.0830 104.6658  1.90553081102184"
"2.0","GENERATED VIA SPACE-TRACK.ORG API","2023-01-03T02:40:54","18 SPCS","CZ-3A DEB","2007-003S","EARTH","TEME","UTC","SGP4","2023-01-02T10:02:06.300672","1.90553081","0.74418050","22.9580","145.3997","198.0830","104.6658","0","U","35558","999","6635","0.00624070000000","0.00000238","0.0000000000000","27482.603","755.695","41556.485","652.451","DEBRIS","MEDIUM","PRC","2007-02-02","XSC","","3729873","222055032","0 CZ-3A DEB","1 35558U 07003S   23002.41812848  .00000238  00000-0  62407-2 0  9993","2 35558  22.9580 145.3997 7441805 198.0830 104.6658  1.90553081 66352"
"2.0","GENERATED VIA SPACE-TRACK.ORG API","2023-01-02T02:38:49","18 SPCS","BREEZE-M R/B","2009-042B","EARTH","TEME","UTC","SGP4","2023-01-01T08:07:09.251328","1.59998522","0.31081690","7.6413","359.4713","169.6514","198.6678","0","U","35697","999","7792","0.00000000000000","-0.00000095","0.0000000000000","30878.618","900.008","34098.080","14902.887","ROCKET BODY","MEDIUM","CIS","2009-08-11","TTMTR","","3728952","221980949","0 BREEZE-M R/B","1 35697U 09042B   23001.33830152 -.00000095  00000-0  00000-0 0  9991","2 35697   7.6413 359.4713 3108169 169.6514 198.6678  1.59998522 77925"
"2.0","GENERATED VIA SPACE-TRACK.ORG API","2023-01-01T17:55:23","18 SPCS","BREEZE-M R/B","2009-042B","EARTH","TEME","UTC","SGP4","2023-01-01T08:07:09.245280","1.59998516","0.31081600","7.6413","359.4712","169.6514","198.6677","0","U","35697","999","7792","0.00000000000000","-0.00000095","0.0000000000000","30878.619","900.008","34098.053","14902.915","ROCKET BODY","MEDIUM","CIS","2009-08-11","TTMTR","","3728759","221923088","0 BREEZE-M R/B","1 35697U 09042B   23001.33830145 -.00000095  00000-0  00000-0 0  9993","2 35697   7.6413 359.4712 3108160 169.6514 198.6677  1.59998516 77927"
